RADUGA 1 [-]            
1 08513U 75123A   22223.19204407 -.00000001  00000+0  00000+0 0  9993
2 08513   6.4132 287.8085 0008368 213.8528 311.9454  1.00263315180712
RADUGA 2 [-]            
1 09416U 76092A   22222.83881156 -.00000088  00000+0  00000+0 0  9999
2 09416   7.0767 289.7918 0025514 357.8567  47.2020  1.00298563115243
RADUGA 3 [-]            
1 10159U 77071A   22223.11646535 -.00000345  00000+0  00000+0 0  9991
2 10159   7.6909 292.3681 0009769 230.9234 305.8379  1.00228411162940
RADUGA 4 [-]            
1 10987U 78073A   22222.82781782  .00000144  00000+0  00000+0 0  9990
2 10987   8.3148 295.8624 0007286 358.8781   0.2813  1.00275967105490
RADUGA 5 [-]            
1 11343U 79035A   22222.69387806 -.00000194  00000+0  00000+0 0  9996
2 11343   8.7732 298.6050 0007342 172.2186 183.6939  1.00269655115240
RADUGA 6 [-]            
1 11708U 80016A   22222.83165463  .00000054  00000+0  00000+0 0  9995
2 11708   9.1311 301.6548 0003617 194.4662 179.3372  1.00331319108068
RADUGA 7 [-]            
1 12003U 80081A   22223.22895839 -.00000219  00000+0  00000+0 0  9991
2 12003   9.3134 303.5885 0009781 255.5921 173.4178  1.00295172109215
RADUGA 8 [-]            
1 12351U 81027A   22222.69448846 -.00000243  00000+0  00000+0 0  9997
2 12351   9.6454 304.1881 0083086 228.1610 124.6487  1.00416396108429
RADUGA 9 [-]            
1 12618U 81069A   22222.86016573  .00000104  00000+0  00000+0 0  9991
2 12618   9.8625 307.1243 0005258 154.5384 215.8290  1.00332872 33245
RADUGA 10 [-]           
1 12897U 81102A   22222.76100396 -.00000165  00000+0  00000+0 0  9992
2 12897   9.9479 308.0964 0006785 176.4248 190.5976  1.00290298103243
RADUGA 11 [-]           
1 13669U 82113A   22223.39439411 -.00000052  00000+0  00000+0 0  9991
2 13669  11.9828 321.7378 0037810 252.8796 133.9239  0.97707964107800
RADUGA 12 [-]           
1 13974U 83028A   22222.85015417 -.00000011  00000+0  00000+0 0  9997
2 13974  11.0841 317.8200 0004205 128.8792 244.2012  1.00279511155282
RADUGA 13 [-]           
1 14307U 83088A   22223.11924247 -.00000174  00000+0  00000+0 0  9994
2 14307  12.2304 323.2888 0015211  49.1462 310.6231  0.98175201105138
RADUGA 14 [-]           
1 14725U 84016A   22222.74702069 -.00000206  00000+0  00000+0 0  9990
2 14725  11.2885 321.5652 0006493 140.7295 212.2672  1.00277813103993
RADUGA 15 [-]           
1 15057U 84063A   22222.70094128 -.00000364  00000+0  00000+0 0  9992
2 15057  11.4102 322.5558 0006752 156.9470 213.1863  1.00321012127005
RADUGA 16 [-]           
1 15946U 85070A   22223.58041694  .00000068  00000+0  00000+0 0  9995
2 15946  11.8665 327.2017 0003324 152.4893 237.0876  1.00279625108138
RADUGA 17 [-]           
1 16250U 85107A   22223.23815338 -.00000295  00000+0  00000+0 0  9994
2 16250  11.9898 328.5841 0015641 178.3569 195.4170  1.00147068137598
RADUGA 18 [-]           
1 16497U 86007A   22223.23763017 -.00000146  00000+0  00000+0 0  9998
2 16497  12.7959 331.2901 0076540 165.0034 203.6814  0.98812526131978
RADUGA 19 [-]           
1 17046U 86082A   22223.30433844 -.00000037  00000+0  00000+0 0  9991
2 17046  13.2207 335.2118 0014886 147.1076 215.8928  0.98459152129078
RADUGA 20 [-]           
1 17611U 87028A   22221.83144848 -.00000078  00000+0  00000+0 0  9994
2 17611  15.2350 338.7486 0032089 136.6140 220.7996  0.95960942124800
RADUGA 21 [-]           
1 18631U 87100A   22223.52644150  .00000101  00000+0  00000+0 0  9993
2 18631  13.3065 336.0799 0004640 128.1473 248.9276  1.00280717126997
RADUGA 22 [-]           
1 19596U 88095A   22223.20512413 -.00000360  00000+0  00000+0 0  9997
2 19596  13.2872 340.3602 0008621 136.6293  47.0677  1.00236525107553
RADUGA 23 [-]           
1 19928U 89030A   22222.97111573  .00000118  00000+0  00000+0 0  9991
2 19928  13.4323 342.1792 0023129 160.2228 203.3171  1.00319881120756
RADUGA-1 1 [-]          
1 20083U 89048A   22223.57545130 -.00000276  00000+0  00000+0 0  9997
2 20083  14.1833 345.2285 0023666 115.1597 212.6802  0.98711113117399
RADUGA 24 [-]           
1 20367U 89098A   22222.87688285 -.00000040  00000+0  00000+0 0  9997
2 20367  14.0054 344.4451 0003014 130.2032 228.4233  1.00207795118867
RADUGA 25 [-]           
1 20499U 90016A   22223.21646433 -.00000309  00000+0  00000+0 0  9991
2 20499  13.7745 345.0904 0006810 138.9003 213.8368  1.00197696118805
RADUGA 26 [-]           
1 21016U 90112A   22223.40671167 -.00000011  00000+0  00000+0 0  9997
2 21016  14.0845 348.3444 0008501  95.6496  84.2413  1.00312375116166
RADUGA-1 2 [-]          
1 21038U 90116A   22223.47588653  .00000080  00000+0  00000+0 0  9994
2 21038  14.1220 348.4168 0009775 102.7695  89.4381  1.00260945 33240
RADUGA 27 [-]           
1 21132U 91014A   22223.11646611  .00000073  00000+0  00000+0 0  9999
2 21132  14.6328 347.9775 0005255 104.1157 286.9093  1.00273239115217
RADUGA 28 [-]           
1 21821U 91087A   22222.84089788 -.00000345  00000+0  00000+0 0  9992
2 21821  14.3964 351.6906 0009309 122.6444 252.1225  1.00210012112221
RADUGA 29 [-]           
1 22557U 93013A   22223.04146736  .00000111  00000+0  00000+0 0  9990
2 22557  14.5966 355.8680 0008881 114.1394 252.7310  1.00336256107584
RADUGA 30 [-]           
1 22836U 93062A   22223.40950208 -.00000132  00000+0  00000+0 0  9995
2 22836  14.6353 357.8322 0001909  59.6707 126.1505  1.00259070 31905
RADUGA-1 3 [-]          
1 22981U 94008A   22223.35396714 -.00000326  00000+0  00000+0 0  9992
2 22981  14.7126 358.9839 0005659 106.0779  81.7162  1.00254308104389
RADUGA 31 [-]           
1 23010U 94012A   22223.47693292  .00000040  00000+0  00000+0 0  9997
2 23010  14.6814 358.9804 0006873  97.1047  90.0057  1.00322000104252
RADUGA 32 [-]           
1 23448U 94087A   22223.41368948 -.00000137  00000+0  00000+0 0  9993
2 23448  14.6610   1.6899 0004866 182.5068   1.3576  1.00261652118788
RADUGA-1 4 [-]          
1 25642U 99010A   22223.08104931  .00000109  00000+0  00000+0 0  9993
2 25642  15.2143  13.2859 0000828 183.0713 188.4290  1.00291826 85853
RADUGA-1 5 [-]          
1 26477U 00049A   22223.04419328  .00000100  00000+0  00000+0 0  9990
2 26477  13.1570  18.1111 0006570  68.7451 292.0831  1.00269835 80329
RADUGA-1 6 [-]          
1 26936U 01045A   22223.26785453 -.00000181  00000+0  00000+0 0  9996
2 26936  13.3161  24.4171 0016391 158.4883 202.7029  0.97745806 74862
RADUGA-1 7 [-]          
1 28194U 04010A   22223.34811302 -.00000373  00000+0  00000+0 0  9994
2 28194  12.0306  31.2620 0002155 120.5307  61.4935  1.00251314 67326
RADUGA-1M 1 [-]         
1 32373U 07058A   22223.25188091 -.00000044  00000+0  00000+0 0  9990
2 32373   7.0127  63.6858 0004717  30.6930 334.7276  0.99398768 38421
RADUGA-1 8 [-]          
1 34264U 09010A   22223.18035556  .00000004  00000+0  00000+0 0  9995
2 34264   9.3304  53.6883 0014604   6.1570 340.5089  0.99827781 49134
RADUGA-1M 2 [+]         
1 36358U 10002A   22223.50466112 -.00000201  00000+0  00000+0 0  9996
2 36358   0.0405 224.8630 0002563 306.1311  55.6633  1.00274107 35998
RADUGA-1M 3 [+]         
1 39375U 13062A   22223.23451973  .00000138  00000+0  00000+0 0  9994
2 39375   2.3646  89.1621 0002221 158.9286 191.0006  1.00274599 32024
